#dP2022  4 19  0  0  0.00000000      96 __u+U ITR00 EXT  IAC
## 2206 172800.00000000   900.00000000 59688 0.0000000000000
+  117   C06C07C08C09C10C11C12C13C14C16C19C20C21C22C23C24C25
+        C26C27C28C29C30C32C33C34C35C36C37C38C39C40C41C42C43
+        C44C45C46E01E02E03E04E05E07E08E09E10E11E12E13E14E15
+        E18E19E21E24E25E26E27E30E31E33E34E36G01G02G03G04G05
+        G06G07G08G09G10G11G12G13G14G15G16G17G18G19G20G21G22
+        G23G24G25G26G27G28G29G30G31G32J02J03R01R02R03R04R05
+        R07R08R09R11R12R13R14R15R17R18R19R20R21R22R24  0  0
++        11  9  9 10 10  9  8 10  8 10  9  8  9  8 10 10  8
++         9 10  8  7  9  8 10  8 11  8  9 10 10 10  8  9  8
++         9 10 10  9  8  8  9  8  8  8  8  8  7  9  8  8  8
++         8  9  8  8  8  8  8  7  8  9  7  7  8  8  8  8  8
++         8  8  7  8  8  8  8  8  8  9  8  7  8  8  8  8  9
++         7  8  7  7  7  7  7  7  8  8 10 11  9  8  7  8  9
++         9  9  8  9  9  9  9  9 10 10  7 10  9 10  8  0  0
%c M  cc GPS ccc cccc cccc cccc cccc ccccc ccccc ccccc ccccc
%c cc cc ccc ccc cccc cccc cccc cccc ccccc ccccc ccccc ccccc
%f  0.0000000  0.000000000  0.00000000000  0.000000000000000
%f  0.0000000  0.000000000  0.00000000000  0.000000000000000
%i    0    0    0    0      0      0      0      0         0
%i    0    0    0    0      0      0      0      0         0
/* IAC                                ULTRA-RAPID PREDICTION
/* S/V CLOCKS ARE ALIGNED TO GNSS TIME                      
/* G:C1WC2W R:C1PC2P E:C1XC5X C:C2IC6I J:C1CC2S             
/* PCV:IGS14_2196 OL/AL:FES2004  NONE     YN ORB:CoN CLK:CoN
*  2022 04 19  8 15  0.00000000
PC06  -5661.878083  24392.897162 -33892.076565   -177.040754
PC07 -18388.846555  34039.771527  16585.361003    -69.638678
PC08  -4609.812352  39029.334955  15471.521928    267.276047
PC09   5145.093884  27712.615735 -30837.974783   -710.172858
PC10 -10342.400542  33940.430010  22682.126100    135.722627
PC11 -25417.740130 -11486.733451     86.738550    300.922330
PC12      0.000000      0.000000      0.000000   -626.727726
PC13   1274.602466  41735.520124   6904.702416    -56.475644
PC14 -19200.631941  -2775.081632  20064.566812    459.903987
PC16  -8039.849695  22745.044837 -34398.694771    121.211846
PC19  23487.699622  -6040.120149 -13793.257831    876.991127
PC20  13297.781276   9422.809543 -22634.945092   -883.125443
PC21   5631.616769 -20234.511558  18409.964232   -139.187914
PC22  20552.440609 -18598.438111   3380.746713   -969.070261
PC23 -11047.197635  17925.258505 -18313.175581   -932.174233
PC24 -11942.951581 -21715.874653 -12814.802681   -954.875725
PC25 -16468.936524  -1228.543556 -22500.685013   -748.851949
PC26  -2056.065498 -27668.165862   2806.680906    749.673796
PC27   4530.427129  17809.116609  20972.472390    710.155122
PC28 -14850.415233   9755.480629  21517.833204     57.023578
PC29  26139.529220   3412.957916  -9156.848394    543.361613
PC30  21638.948432  15152.292759   8944.695297    497.176539
PC32  -5509.188374  20268.404016 -18344.610305   -963.005645
PC33 -23429.672589   6032.979991  13901.685412   -967.308977
PC34 -22258.620257 -14818.273589  -8046.361542   -422.266397
PC35  15358.789947  -9773.574865 -21150.994569    235.623873
PC36  16468.697062   2237.127748  22438.629959   -964.026078
PC37    643.292377  27634.327342  -3900.246278   -921.746891
PC38  -9449.349825  35330.660218  21133.819692    226.201847
PC39 -14197.888542  20090.144716 -34234.782395     34.946358
PC40 -25575.946722  29488.828512  15708.329432    262.085198
PC41 -20750.326179  18430.677150  -2841.662118   -967.017534
PC42 -12434.160832 -10318.304219  22800.106997   -953.458502
PC43 -26295.432181  -4004.088644   8476.798467   -929.081468
PC44  -4924.992476 -17752.766552 -20984.774600    632.591475
PC45  10809.470973 -18139.912548  18233.441769    735.208505
PC46  12544.272075  20648.379738  13997.169497   -279.862532
PE01  18993.544960  -8715.878712  20957.057298   -619.249384
PE02 -19013.819282   8910.828876 -20876.214326    293.785442
PE03 -29139.174180   4987.934038  -1345.879846   -549.564686
PE04  18074.700406 -15216.243625  17842.803433  -1009.781617
PE05 -23277.704421  -8374.074071  16260.864168   -189.455672
PE07   3976.755589  16654.373433 -24134.206527   -660.100360
PE08 -17738.830106  15267.579891 -18108.305467   -514.860556
PE09  -4180.675221 -16477.926406  24238.985811   -489.399627
PE10  -1777.936985 -22339.681915 -19348.380255   -507.647496
PE11 -10536.823761 -25275.694395 -11277.100262   3915.980684
PE12   6979.668787 -16151.731812 -23810.968691   4655.470953
PE13  10074.967382  25150.208339  11907.386269    428.122784
PE14 -14569.277055  11327.693560  14448.786027  -1819.323949
PE15  -7036.236693  15974.162152  23906.775632    750.773401
PE18  17638.267975 -16821.466963 -21547.729476  -1547.193300
PE19  29395.758908  -3317.633311   -983.064049  -3263.394779
PE21  12945.763015  11481.487023  24011.515293   -729.322629
PE24   1855.765494 -26773.069740 -12476.053439   -569.113688
PE25 -12804.054297 -11741.487121 -23963.553396   -570.933852
PE26  21377.094552  18886.856799  -7892.887001  -1047.527109
PE27   -878.242551  26350.060715  13467.045007   -279.635432
PE30 -14696.210129  25027.988725  -5873.311806   -442.770909
PE31  14063.781333 -25575.474189   4913.480085   -495.302443
PE33  19902.307526   2558.654021 -21753.585161   -457.472620
PE34 -19834.285607  -2336.630690  21840.429593   -512.818217
PE36 -21153.064459 -19499.356118   6999.413629   -361.780249
PG01 -17988.511595  -7452.780588  17936.705656    381.651063
PG02  14791.828264  21959.919591    876.869335   -653.172550
PG03 -17410.422915   3923.898111  19526.907099   -212.570094
PG04 -26583.209496   -950.385901    603.702068   -174.682372
PG05  10543.951028  12149.595608 -21272.459382    -78.840371
PG06   3010.528246  22658.909114  13521.411740    272.130862
PG07 -11971.273275   9561.226662 -21271.734690    320.594763
PG08 -23906.567180  -6266.073478 -10231.471812    -64.558670
PG09 -23567.128226   7652.271172  -9669.947331   -342.733192
PG10  11068.729817 -23827.532329   2744.687672   -384.366979
PG11  12954.596868  23172.002265  -1026.199818    -37.540041
PG12  16277.096947   1027.290062  20667.569699   -202.632721
PG13  17108.100552  13038.486951 -15842.430481    296.790001
PG14 -12784.429914  23172.540159   1622.466871   -103.514821
PG15  24668.981164   3935.698335  -9881.422870    -67.788975
PG16  -5697.259198 -16345.299878 -20283.355914   -493.112421
PG17  -9596.885733  13716.610101  21064.579124    602.238709
PG18  11874.371862  -9310.521987 -21857.139972    191.779131
PG19  -1667.910356  14626.962002  21843.574948    146.328817
PG20   4655.117412  20851.387657 -15920.203073    515.756895
PG21 -19824.238446 -15321.146793  10415.276047    160.558225
PG22  -1757.564776 -15476.326268  21939.150806    245.721928
PG23  16392.959673 -19131.154979  -8258.795704    -16.043116
PG24  20034.455433  10134.608320  14202.243985    254.472852
PG25  18196.279436 -13296.389732  13545.448912    313.909126
PG26   1747.937053 -23543.370954 -11944.646350    199.697970
PG27 -14451.085786 -12576.459514 -18774.285551    186.483677
PG28  -7218.571932  23548.782480  10747.714642    369.842834
PG29  24587.843171  -4590.527543  -9078.915601   -504.684099
PG30  -5448.258933  17993.588586 -18589.276706   -524.430372
PG31  -4395.123232 -23493.261419  10942.871930   -174.062741
PG32   6372.479283 -14979.867862  21094.191226   -108.608180
PJ02 -23967.240895  32440.832298  -7891.216714     -2.839175
PJ03 -27284.762460  21984.453576  28528.895371     -1.622832
PR01 -16716.625185  15279.001254 -11715.242689      7.915298
PR02   1209.051516  11366.242506 -22760.436460    515.977236
PR03  17245.015003   1259.867134 -18680.416470     55.189936
PR04  23329.767051  -9365.806879  -4264.156522    137.449199
PR05  16622.690313 -14744.344821  12525.639066     91.419153
PR07 -17799.775742   -804.432933  18317.939695     34.044597
PR08 -23339.230623   9426.368550   4272.603865    -64.687435
PR09  -2977.652693 -24123.951988  -7843.317034     50.589038
PR11 -10717.065608   7092.808483 -22023.580432     40.846301
PR12  -5868.732826  22803.843648  -9811.478970     18.012673
PR13   2209.085198  24510.360930   6695.835098    -21.088663
PR14   9522.382171  11318.833575  20785.346559     76.687412
PR15  10849.631913  -7848.012335  21727.065601     96.729825
PR17  21625.461494  13454.240496  -1687.925230    518.828842
PR18  18705.335670   3465.429664 -16950.480380    114.067859
PR19   7292.599507  -7469.846710 -23277.180892   -185.911587
PR20 -11389.838505 -16678.217552 -15608.500188    -68.918766
PR21 -21763.430905 -12895.128839   3197.099440   -294.507652
PR22 -18316.716882  -3078.407397  17520.107836   -177.841393
PR24  12131.879162  16735.783542  14964.200572     89.781829
EOF
